STARLINK-31874          
1 60603U 24150W   25337.17090284  .00001028  00000+0  46849-4 0  9993
2 60603  53.1616  35.3667 0001304  87.7854 272.3296 15.30193121 73261
STARLINK-32039          
1 60604U 24150X   25337.35693308 -.00001803  00000+0 -48770-4 0  9998
2 60604  53.1611  37.2378 0001216  64.3468 295.7659 15.30202214 73256
STARLINK-11247 [DTC]    
1 60720U 24152A   25337.12166287  .00000410  00000+0  82421-5 0  9998
2 60720  53.1595 232.6193 0001232  86.2932 273.8227 15.69712296 73660
STARLINK-11259 [DTC]    
1 60721U 24152B   25337.11675990 -.00000575  00000+0  11420-6 0  9999
2 60721  53.1590 232.5884 0001104  89.6121 270.5023 15.69706912 73663
STARLINK-11188 [DTC]    
1 60722U 24152C   25336.92084569  .00002419  00000+0  24831-4 0  9990
2 60722  53.1596 233.4933 0001355 117.7859 242.3297 15.69697496 73750
STARLINK-11272 [DTC]    
1 60723U 24152D   25337.10204150  .00000729  00000+0  10873-4 0  9995
2 60723  53.1598 232.4919 0001139  83.6759 276.4389 15.69712444 73667
STARLINK-11261 [DTC]    
1 60724U 24152E   25336.97961009  .00000417  00000+0  83045-5 0  9999
2 60724  53.1589 233.1514 0001222  83.8524 276.2633 15.69706390 73643
STARLINK-11263 [DTC]    
1 60725U 24152F   25337.09716801 -.00003775  00000+0 -26345-4 0  9993
2 60725  53.1596 232.4575 0001245 117.3107 242.8038 15.69680973 73664
STARLINK-11235 [DTC]    
1 60726U 24152G   25337.09223203 -.00000338  00000+0  20681-5 0  9992
2 60726  53.1581 232.4230 0001087  88.6424 271.4718 15.69706648 73798
STARLINK-11080 [DTC]    
1 60727U 24152H   25337.21466148  .00000506  00000+0  90365-5 0  9996
2 60727  53.1585 231.7638 0001189  88.3008 271.8146 15.69712785 73816
STARLINK-11249 [DTC]    
1 60728U 24152J   25337.01874222  .00000974  00000+0  12893-4 0  9999
2 60728  53.1593 232.6714 0001258 137.2787 222.8329 15.69717164 73653
STARLINK-11146 [DTC]    
1 60729U 24152K   25337.01383723  .00001327  00000+0  15806-4 0  9991
2 60729  53.1595 232.6300 0001054  93.2779 266.8360 15.69718943 73786
STARLINK-11255 [DTC]    
1 60730U 24152L   25337.00895317  .00005587  00000+0  50979-4 0  9991
2 60730  53.1591 232.6103 0001641  46.1611 313.9543 15.69696373 73665
STARLINK-11254 [DTC]    
1 60731U 24152M   25336.94036508  .00000792  00000+0  11403-4 0  9995
2 60731  53.1604 232.8876 0001372  86.8117 273.3058 15.69705041 73655
STARLINK-11266 [DTC]    
1 60732U 24152N   25336.93545693 -.00000227  00000+0  29921-5 0  9994
2 60732  53.1596 232.8424 0001368 113.8829 246.2332 15.69708726 73647
STARLINK-32253          
1 60733U 24152P   25337.10071566 -.00000316  00000+0  14562-5 0  9992
2 60733  53.1624 356.9962 0001446  88.4420 271.6746 15.30196454 72014
