[{"OBJECT_NAME":"STARLINK-31874","OBJECT_ID":"2024-150W","EPOCH":"2025-12-03T04:06:06.005376","MEAN_MOTION":15.30193121,"ECCENTRICITY":0.0001304,"INCLINATION":53.1616,"RA_OF_ASC_NODE":35.3667,"ARG_OF_PERICENTER":87.7854,"MEAN_ANOMALY":272.3296,"EPHEMERIS_TYPE":0,"CLASSIFICATION_TYPE":"U","NORAD_CAT_ID":60603,"ELEMENT_SET_NO":999,"REV_AT_EPOCH":7326,"BSTAR":4.6848848e-5,"MEAN_MOTION_DOT":1.028e-5,"MEAN_MOTION_DDOT":0},{"OBJECT_NAME":"STARLINK-32039","OBJECT_ID":"2024-150X","EPOCH":"2025-12-03T08:33:59.018112","MEAN_MOTION":15.30202214,"ECCENTRICITY":0.00012163,"INCLINATION":53.1611,"RA_OF_ASC_NODE":37.2378,"ARG_OF_PERICENTER":64.3468,"MEAN_ANOMALY":295.7659,"EPHEMERIS_TYPE":0,"CLASSIFICATION_TYPE":"U","NORAD_CAT_ID":60604,"ELEMENT_SET_NO":999,"REV_AT_EPOCH":7325,"BSTAR":-4.8769519e-5,"MEAN_MOTION_DOT":-1.803e-5,"MEAN_MOTION_DDOT":0},{"OBJECT_NAME":"STARLINK-11247 [DTC]","OBJECT_ID":"2024-152A","EPOCH":"2025-12-03T02:55:11.671968","MEAN_MOTION":15.69712296,"ECCENTRICITY":0.00012326,"INCLINATION":53.1595,"RA_OF_ASC_NODE":232.6193,"ARG_OF_PERICENTER":86.2932,"MEAN_ANOMALY":273.8227,"EPHEMERIS_TYPE":0,"CLASSIFICATION_TYPE":"U","NORAD_CAT_ID":60720,"ELEMENT_SET_NO":999,"REV_AT_EPOCH":7366,"BSTAR":8.24206e-6,"MEAN_MOTION_DOT":4.1e-6,"MEAN_MOTION_DDOT":0},{"OBJECT_NAME":"STARLINK-11259 [DTC]","OBJECT_ID":"2024-152B","EPOCH":"2025-12-03T02:48:08.055360","MEAN_MOTION":15.69706912,"ECCENTRICITY":0.00011049,"INCLINATION":53.159,"RA_OF_ASC_NODE":232.5884,"ARG_OF_PERICENTER":89.6121,"MEAN_ANOMALY":270.5023,"EPHEMERIS_TYPE":0,"CLASSIFICATION_TYPE":"U","NORAD_CAT_ID":60721,"ELEMENT_SET_NO":999,"REV_AT_EPOCH":7366,"BSTAR":1.14202e-7,"MEAN_MOTION_DOT":-5.75e-6,"MEAN_MOTION_DDOT":0},{"OBJECT_NAME":"STARLINK-11188 [DTC]","OBJECT_ID":"2024-152C","EPOCH":"2025-12-02T22:06:01.067616","MEAN_MOTION":15.69697496,"ECCENTRICITY":0.0001355,"INCLINATION":53.1596,"RA_OF_ASC_NODE":233.4933,"ARG_OF_PERICENTER":117.7859,"MEAN_ANOMALY":242.3297,"EPHEMERIS_TYPE":0,"CLASSIFICATION_TYPE":"U","NORAD_CAT_ID":60722,"ELEMENT_SET_NO":999,"REV_AT_EPOCH":7375,"BSTAR":2.4830881e-5,"MEAN_MOTION_DOT":2.419e-5,"MEAN_MOTION_DDOT":0},{"OBJECT_NAME":"STARLINK-11272 [DTC]","OBJECT_ID":"2024-152D","EPOCH":"2025-12-03T02:26:56.385600","MEAN_MOTION":15.69712444,"ECCENTRICITY":0.00011399,"INCLINATION":53.1598,"RA_OF_ASC_NODE":232.4919,"ARG_OF_PERICENTER":83.6759,"MEAN_ANOMALY":276.4389,"EPHEMERIS_TYPE":0,"CLASSIFICATION_TYPE":"U","NORAD_CAT_ID":60723,"ELEMENT_SET_NO":999,"REV_AT_EPOCH":7366,"BSTAR":1.0873312e-5,"MEAN_MOTION_DOT":7.29e-6,"MEAN_MOTION_DDOT":0},{"OBJECT_NAME":"STARLINK-11261 [DTC]","OBJECT_ID":"2024-152E","EPOCH":"2025-12-02T23:30:38.311776","MEAN_MOTION":15.6970639,"ECCENTRICITY":0.00012227,"INCLINATION":53.1589,"RA_OF_ASC_NODE":233.1514,"ARG_OF_PERICENTER":83.8524,"MEAN_ANOMALY":276.2633,"EPHEMERIS_TYPE":0,"CLASSIFICATION_TYPE":"U","NORAD_CAT_ID":60724,"ELEMENT_SET_NO":999,"REV_AT_EPOCH":7364,"BSTAR":8.30446e-6,"MEAN_MOTION_DOT":4.17e-6,"MEAN_MOTION_DDOT":0},{"OBJECT_NAME":"STARLINK-11263 [DTC]","OBJECT_ID":"2024-152F","EPOCH":"2025-12-03T02:19:55.316064","MEAN_MOTION":15.69680973,"ECCENTRICITY":0.00012452,"INCLINATION":53.1596,"RA_OF_ASC_NODE":232.4575,"ARG_OF_PERICENTER":117.3107,"MEAN_ANOMALY":242.8038,"EPHEMERIS_TYPE":0,"CLASSIFICATION_TYPE":"U","NORAD_CAT_ID":60725,"ELEMENT_SET_NO":999,"REV_AT_EPOCH":7366,"BSTAR":-2.6345205e-5,"MEAN_MOTION_DOT":-3.775e-5,"MEAN_MOTION_DDOT":0},{"OBJECT_NAME":"STARLINK-11235 [DTC]","OBJECT_ID":"2024-152G","EPOCH":"2025-12-03T02:12:48.847392","MEAN_MOTION":15.69706648,"ECCENTRICITY":0.00010876,"INCLINATION":53.1581,"RA_OF_ASC_NODE":232.423,"ARG_OF_PERICENTER":88.6424,"MEAN_ANOMALY":271.4718,"EPHEMERIS_TYPE":0,"CLASSIFICATION_TYPE":"U","NORAD_CAT_ID":60726,"ELEMENT_SET_NO":999,"REV_AT_EPOCH":7379,"BSTAR":2.068055e-6,"MEAN_MOTION_DOT":-3.38e-6,"MEAN_MOTION_DDOT":0},{"OBJECT_NAME":"STARLINK-11080 [DTC]","OBJECT_ID":"2024-152H","EPOCH":"2025-12-03T05:09:06.751872","MEAN_MOTION":15.69712785,"ECCENTRICITY":0.00011897,"INCLINATION":53.1585,"RA_OF_ASC_NODE":231.7638,"ARG_OF_PERICENTER":88.3008,"MEAN_ANOMALY":271.8146,"EPHEMERIS_TYPE":0,"CLASSIFICATION_TYPE":"U","NORAD_CAT_ID":60727,"ELEMENT_SET_NO":999,"REV_AT_EPOCH":7381,"BSTAR":9.036546e-6,"MEAN_MOTION_DOT":5.06e-6,"MEAN_MOTION_DDOT":0},{"OBJECT_NAME":"STARLINK-11249 [DTC]","OBJECT_ID":"2024-152J","EPOCH":"2025-12-03T00:26:59.327808","MEAN_MOTION":15.69717164,"ECCENTRICITY":0.0001258,"INCLINATION":53.1593,"RA_OF_ASC_NODE":232.6714,"ARG_OF_PERICENTER":137.2787,"MEAN_ANOMALY":222.8329,"EPHEMERIS_TYPE":0,"CLASSIFICATION_TYPE":"U","NORAD_CAT_ID":60728,"ELEMENT_SET_NO":999,"REV_AT_EPOCH":7365,"BSTAR":1.2893441e-5,"MEAN_MOTION_DOT":9.74e-6,"MEAN_MOTION_DDOT":0},{"OBJECT_NAME":"STARLINK-11146 [DTC]","OBJECT_ID":"2024-152K","EPOCH":"2025-12-03T00:19:55.536672","MEAN_MOTION":15.69718943,"ECCENTRICITY":0.00010548,"INCLINATION":53.1595,"RA_OF_ASC_NODE":232.63,"ARG_OF_PERICENTER":93.2779,"MEAN_ANOMALY":266.836,"EPHEMERIS_TYPE":0,"CLASSIFICATION_TYPE":"U","NORAD_CAT_ID":60729,"ELEMENT_SET_NO":999,"REV_AT_EPOCH":7378,"BSTAR":1.5806432e-5,"MEAN_MOTION_DOT":1.327e-5,"MEAN_MOTION_DDOT":0},{"OBJECT_NAME":"STARLINK-11255 [DTC]","OBJECT_ID":"2024-152L","EPOCH":"2025-12-03T00:12:53.553888","MEAN_MOTION":15.69696373,"ECCENTRICITY":0.00016415,"INCLINATION":53.1591,"RA_OF_ASC_NODE":232.6103,"ARG_OF_PERICENTER":46.1611,"MEAN_ANOMALY":313.9543,"EPHEMERIS_TYPE":0,"CLASSIFICATION_TYPE":"U","NORAD_CAT_ID":60730,"ELEMENT_SET_NO":999,"REV_AT_EPOCH":7366,"BSTAR":5.0978553e-5,"MEAN_MOTION_DOT":5.587e-5,"MEAN_MOTION_DDOT":0},{"OBJECT_NAME":"STARLINK-11254 [DTC]","OBJECT_ID":"2024-152M","EPOCH":"2025-12-02T22:34:07.542912","MEAN_MOTION":15.69705041,"ECCENTRICITY":0.00013725,"INCLINATION":53.1604,"RA_OF_ASC_NODE":232.8876,"ARG_OF_PERICENTER":86.8117,"MEAN_ANOMALY":273.3058,"EPHEMERIS_TYPE":0,"CLASSIFICATION_TYPE":"U","NORAD_CAT_ID":60731,"ELEMENT_SET_NO":999,"REV_AT_EPOCH":7365,"BSTAR":1.1403266e-5,"MEAN_MOTION_DOT":7.92e-6,"MEAN_MOTION_DDOT":0},{"OBJECT_NAME":"STARLINK-11266 [DTC]","OBJECT_ID":"2024-152N","EPOCH":"2025-12-02T22:27:03.478752","MEAN_MOTION":15.69708726,"ECCENTRICITY":0.00013688,"INCLINATION":53.1596,"RA_OF_ASC_NODE":232.8424,"ARG_OF_PERICENTER":113.8829,"MEAN_ANOMALY":246.2332,"EPHEMERIS_TYPE":0,"CLASSIFICATION_TYPE":"U","NORAD_CAT_ID":60732,"ELEMENT_SET_NO":999,"REV_AT_EPOCH":7364,"BSTAR":2.992115e-6,"MEAN_MOTION_DOT":-2.27e-6,"MEAN_MOTION_DDOT":0},{"OBJECT_NAME":"STARLINK-32253","OBJECT_ID":"2024-152P","EPOCH":"2025-12-03T02:25:01.833024","MEAN_MOTION":15.30196454,"ECCENTRICITY":0.00014468,"INCLINATION":53.1624,"RA_OF_ASC_NODE":356.9962,"ARG_OF_PERICENTER":88.442,"MEAN_ANOMALY":271.6746,"EPHEMERIS_TYPE":0,"CLASSIFICATION_TYPE":"U","NORAD_CAT_ID":60733,"ELEMENT_SET_NO":999,"REV_AT_EPOCH":7201,"BSTAR":1.456246e-6,"MEAN_MOTION_DOT":-3.16e-6,"MEAN_MOTION_DDOT":0}]
